FLOCK 4G-8              
1 62613U 25009E   26068.72381419  .00013559  00000+0  50438-3 0  9996
2 62613  97.4045 151.2834 0003050 315.2538  44.8455 15.27623414 63721
STARLINK-33864          
1 63636U 25083C   26068.24102747  .00035938  00000+0  13084-2 0  9996
2 63636  43.0055   8.1442 0002393 264.3777  95.6802 15.27597050 50023
